NORAD_CAT_ID,OBJECT_NAME,OBJECT_TYPE,EPOCH,MEAN_MOTION,ECCENTRICITY,INCLINATION,RA_OF_ASC_NODE,ARG_OF_PERICENTER,MEAN_ANOMALY,BSTAR,MEAN_MOTION_DOT,MEAN_MOTION_DDOT,TLE_LINE0,TLE_LINE1,TLE_LINE2,SEMIMAJOR_AXIS,PERIOD,APOGEE,PERIGEE,DECAYED
52495.0,STARLINK-3905,PAYLOAD,2022-07-09 14:00:01,15.73131363,0.000278,53.2162,308.6804,8.9055,115.0065,-0.00081739,-0.00113498,0.0,0 STARLINK-3905,1 52495U 22049AW  22190.58334491 -.00113498  00000-0 -81739-3 0  9992,2 52495  53.2162 308.6804 0002780   8.9055 115.0065 15.73131363  1304,6728.090999999999,91.537,351.826,348.085,0.0
52495.0,STARLINK-3905,PAYLOAD,2022-07-09 16:00:00,15.73070709,0.0002881,53.2164,308.2685,8.6377,227.4922,-5.9003e-05,-8.849e-05,0.0,0 STARLINK-3905,1 52495U 22049AW  22190.66667824 -.00008849  00000-0 -59003-4 0  9993,2 52495  53.2164 308.2685 0002881   8.6377 227.4922 15.73070709 10288,6728.264,91.541,352.06699999999995,348.19,0.0
52495.0,STARLINK-3905,PAYLOAD,2022-07-09 20:00:01,15.73040444,0.0002915,53.2162,307.4438,6.2415,94.2787,0.00057694,0.00080586,0.0,0 STARLINK-3905,1 52495U 22049AW  22190.83334491  .00080586  00000-0  57694-3 0  9992,2 52495  53.2162 307.4438 0002915   6.2415  94.2787 15.73040444  1303,6728.35,91.542,352.176,348.254,0.0
52495.0,STARLINK-3905,PAYLOAD,2022-07-10 06:00:00,15.73119664,0.0002759,53.2167,305.3798,11.5737,289.9182,0.00083613,0.00117991,0.0,0 STARLINK-3905,1 52495U 22049AW  22191.25001157  .00117991  00000-0  83613-3 0  9990,2 52495  53.2167 305.3798 0002759  11.5737 289.9182 15.73119664 10376,6728.124,91.538,351.846,348.1330000000001,0.0
52495.0,STARLINK-3905,PAYLOAD,2022-07-10 14:00:01,15.73193637,0.0003049,53.2169,303.7324,13.5836,16.7834,0.00010853,0.00014634,0.0,0 STARLINK-3905,1 52495U 22049AW  22191.58334491  .00014634  00000-0  10853-3 0  9992,2 52495  53.2169 303.7324 0003049  13.5836  16.7834 15.73193637 10439,6727.913000000001,91.534,351.83,347.727,0.0
52495.0,STARLINK-3905,PAYLOAD,2022-07-10 22:00:00,15.73234531,0.0003123,53.2165,302.0824,12.8264,106.4677,7.6274e-05,0.00010112,0.0,0 STARLINK-3905,1 52495U 22049AW  22191.91667824  .00010112  00000-0  76274-4 0  9995,2 52495  53.2165 302.0824 0003123  12.8264 106.4677 15.73234531  1309,6727.797,91.531,351.76300000000015,347.561,0.0
52495.0,STARLINK-3905,PAYLOAD,2022-07-11 06:00:00,15.7323318,0.0002912,53.2167,300.4314,14.7413,193.5278,0.00054197,0.00076254,0.0,0 STARLINK-3905,1 52495U 22049AW  22192.25001157  .00076254  00000-0  54197-3 0  9992,2 52495  53.2167 300.4314 0002912  14.7413 193.5278 15.73233180 10537,6727.801,91.531,351.625,347.706,0.0
52495.0,STARLINK-3905,PAYLOAD,2022-07-11 14:00:01,15.73305456,0.0003195,53.217,298.7822,12.4162,284.8574,-0.0002048,-0.00029404,0.0,0 STARLINK-3905,1 52495U 22049AW  22192.58334491 -.00029404  00000-0 -20480-3 0  9993,2 52495  53.2170 298.7822 0003195  12.4162 284.8574 15.73305456  1308,6727.595,91.527,351.6090000000001,347.31,0.0
52495.0,STARLINK-3905,PAYLOAD,2022-07-11 22:00:00,15.73408332,0.0003233,53.2169,297.1286,10.2245,16.0866,-0.0049403999999999,-0.00649177,0.0,0 STARLINK-3905,1 52495U 22049AW  22192.91667824 -.00649177  00000-0 -49404-2 0  9990,2 52495  53.2169 297.1286 0003233  10.2245  16.0866 15.73408332 10647,6727.301,91.521,351.341,346.991,0.0
52495.0,STARLINK-3905,PAYLOAD,2022-07-12 14:00:01,15.72351825,0.0003409,53.2176,293.83,8.468,195.0619,-0.0086533,-0.01054702,0.0,0 STARLINK-3905,1 52495U 22049AW  22193.58334491 -.01054702  00000-0 -86533-2 0  9994,2 52495  53.2176 293.8300 0003409   8.4680 195.0619 15.72351825 10740,6730.314,91.583,354.474,349.885,0.0
52495.0,STARLINK-3905,PAYLOAD,2022-07-12 22:00:00,15.71594464,0.0002843,53.2174,292.1847,9.717,281.255,-0.0089716,-0.01057989,0.0,0 STARLINK-3905,1 52495U 22049AW  22193.91667824 -.01057989  00000-0 -89716-2 0  9996,2 52495  53.2174 292.1847 0002843   9.7170 281.2550 15.71594464  1306,6732.477,91.627,356.256,352.427,0.0
52495.0,STARLINK-3905,PAYLOAD,2022-07-13 06:00:00,15.70830978,0.000335,53.2176,290.541,358.5829,18.9205,-0.0091951,-0.01050817,0.0,0 STARLINK-3905,1 52495U 22049AW  22194.25001157 -.01050817  00000-0 -91951-2 0  9992,2 52495  53.2176 290.5410 0003350 358.5829  18.9205 15.70830978 10850,6734.658,91.671,358.779,354.267,0.0
52495.0,STARLINK-3905,PAYLOAD,2022-07-13 14:00:01,15.70085237,0.0004277,53.2175,288.9025,326.188,136.9263,-0.0097142,-0.01073719,0.0,0 STARLINK-3905,1 52495U 22049AW  22194.58334491 -.01073719  00000-0 -97142-2 0  9992,2 52495  53.2175 288.9025 0004277 326.1880 136.9263 15.70085237  1304,6736.79,91.715,361.537,355.774,0.0
52495.0,STARLINK-3905,PAYLOAD,2022-07-13 22:00:00,15.69317849,5.62e-05,53.2174,287.2626,342.3495,205.4735,-0.0099096,-0.01060364,0.0,0 STARLINK-3905,1 52495U 22049AW  22194.91667824 -.01060364  00000-0 -99096-2 0  9990,2 52495  53.2174 287.2626 0000562 342.3495 205.4735 15.69317849  1308,6738.986,91.76,361.23,360.472,0.0
52495.0,STARLINK-3905,PAYLOAD,2022-07-14 08:00:01,15.68365112,0.0001133,53.2177,285.2161,57.6758,324.7445,-0.010231,-0.0105327,0.0,0 STARLINK-3905,1 52495U 22049AW  22195.33334491 -.01053270  00000-0 -10231-1 0  9999,2 52495  53.2177 285.2161 0001133  57.6758 324.7445 15.68365112 11024,6741.715,91.815,364.344,362.816,0.0
52495.0,STARLINK-3905,PAYLOAD,2022-07-14 14:00:01,15.6779628,0.0001274,53.2176,283.9915,48.3409,306.1517,-0.010489,-0.01054669,0.0,0 STARLINK-3905,1 52495U 22049AW  22195.58334491 -.01054669  00000-0 -10489-1 0  9994,2 52495  53.2176 283.9915 0001274  48.3409 306.1517 15.67796280  1308,6743.346,91.849,366.07,364.352,0.0
52495.0,STARLINK-3905,PAYLOAD,2022-07-14 22:00:00,15.67035407,0.0001179,53.2176,282.357,56.9694,19.4909,-0.010792,-0.01052033,0.0,0 STARLINK-3905,1 52495U 22049AW  22195.91667824 -.01052033  00000-0 -10792-1 0  9990,2 52495  53.2176 282.3570 0001179  56.9694  19.4909 15.67035407  1309,6745.528,91.893,368.189,366.598,0.0
52495.0,STARLINK-3905,PAYLOAD,2022-07-15 06:00:00,15.66274254,0.0001365,53.2178,280.7248,59.1183,98.3961,-0.011085,-0.01048092,0.0,0 STARLINK-3905,1 52495U 22049AW  22196.25001157 -.01048092  00000-0 -11085-1 0  9995,2 52495  53.2178 280.7248 0001365  59.1183  98.3961 15.66274254 11163,6747.714,91.938,370.5,368.657,0.0
52495.0,STARLINK-3905,PAYLOAD,2022-07-15 14:00:01,15.65515569,0.0001529,53.2177,279.0973,46.5405,191.1136,-0.011452,-0.01049885,0.0,0 STARLINK-3905,1 52495U 22049AW  22196.58334491 -.01049885  00000-0 -11452-1 0  9990,2 52495  53.2177 279.0973 0001529  46.5405 191.1136 15.65515569  1304,6749.893,91.982,372.79,370.726,0.0
52495.0,STARLINK-3905,PAYLOAD,2022-07-15 22:00:00,15.64757786,0.000114,53.2174,277.4682,59.5876,257.2951,-0.011846,-0.01052892,0.0,0 STARLINK-3905,1 52495U 22049AW  22196.91667824 -.01052892  00000-0 -11846-1 0  9995,2 52495  53.2174 277.4682 0001140  59.5876 257.2951 15.64757786 11268,6752.071999999999,92.027,374.707,373.168,0.0
52495.0,STARLINK-3905,PAYLOAD,2022-07-16 14:00:01,15.63236444,0.0001696,53.2175,274.2196,37.047,75.5539,-0.012519,-0.01064256,0.0,0 STARLINK-3905,1 52495U 22049AW  22197.58334491 -.01064256  00000-0 -12519-1 0  9995,2 52495  53.2175 274.2196 0001696  37.0470  75.5539 15.63236444  1300,6756.4519999999975,92.117,379.463,377.172,0.0
52495.0,STARLINK-3905,PAYLOAD,2022-07-16 22:00:00,15.62479102,0.0001305,53.2176,272.596,63.3493,125.7423,-0.01295,-0.0106801,0.0,0 STARLINK-3905,1 52495U 22049AW  22197.91667824 -.01068010  00000-0 -12950-1 0  9992,2 52495  53.2176 272.5960 0001305  63.3493 125.7423 15.62479102  1304,6758.636,92.161,381.383,379.619,0.0
52495.0,STARLINK-3905,PAYLOAD,2022-07-17 14:00:01,15.60959248,0.0001262999999999,53.2177,269.3586,50.6909,288.6425,-0.013714,-0.01066009,0.0,0 STARLINK-3905,1 52495U 22049AW  22198.58334491 -.01066009  00000-0 -13714-1 0  9992,2 52495  53.2177 269.3586 0001263  50.6909 288.6425 15.60959248  1300,6763.022,92.251,385.741,384.033,0.0
52495.0,STARLINK-3905,PAYLOAD,2022-07-17 22:00:00,15.60198441,0.0001273,53.2176,267.7402,48.4001,4.6872,-0.014092,-0.01063828,0.0,0 STARLINK-3905,1 52495U 22049AW  22198.91667824 -.01063828  00000-0 -14092-1 0  9994,2 52495  53.2176 267.7402 0001273  48.4001   4.6872 15.60198441 11580,6765.22,92.296,387.947,386.224,0.0
52495.0,STARLINK-3905,PAYLOAD,2022-07-18 14:00:01,15.58676828,0.0001713,53.2176,264.514,40.7616,157.0918,-0.014854,-0.01058467,0.0,0 STARLINK-3905,1 52495U 22049AW  22199.58334491 -.01058467  00000-0 -14854-1 0  9998,2 52495  53.2176 264.5140 0001713  40.7616 157.0918 15.58676828  1300,6769.623000000001,92.386,392.647,390.328,0.0
52495.0,STARLINK-3905,PAYLOAD,2022-07-18 16:00:00,15.58488441,0.0001512,53.2173,264.1109,37.164,268.5279,-0.01499,-0.0106028,0.0,0 STARLINK-3905,1 52495U 22049AW  22199.66667824 -.01060280  00000-0 -14990-1 0  9993,2 52495  53.2173 264.1109 0001512  37.1640 268.5279 15.58488441 11695,6770.168000000002,92.397,393.057,391.009,0.0
52495.0,STARLINK-3905,PAYLOAD,2022-07-18 22:00:00,15.57921959,0.0001482,53.2175,262.9011,42.9408,225.9264,-0.015414,-0.01066457,0.0,0 STARLINK-3905,1 52495U 22049AW  22199.91667824 -.01066457  00000-0 -15414-1 0  9995,2 52495  53.2175 262.9011 0001482  42.9408 225.9264 15.57921959  1300,6771.809,92.431,394.67800000000005,392.671,0.0
52495.0,STARLINK-3905,PAYLOAD,2022-07-19 14:00:01,15.56399183,0.0001374,53.2175,259.686,44.3738,3.7842,-0.0162129999999999,-0.01059838,0.0,0 STARLINK-3905,1 52495U 22049AW  22200.58334491 -.01059838  00000-0 -16213-1 0  9995,2 52495  53.2175 259.6860 0001374  44.3738   3.7842 15.56399183 11848,6776.225,92.521,399.021,397.159,0.0
52495.0,STARLINK-3905,PAYLOAD,2022-07-19 22:00:00,15.55639828,0.0001409,53.2176,258.0785,48.4903,67.9451,-0.016677,-0.0105973,0.0,0 STARLINK-3905,1 52495U 22049AW  22200.91667824 -.01059730  00000-0 -16677-1 0  9996,2 52495  53.2176 258.0785 0001409  48.4903  67.9451 15.55639828  1306,6778.43,92.566,401.25,399.34,0.0
